{
  "type": "FeatureCollection",
  "features": [
    {
      "type": "Feature",
      "properties": {
        "norad_id": 33822,
        "name": "COSMOS 2251 DEB",
        "group": "cosmos-2251-debris",
        "lat": -67.05695918870141,
        "lon": 152.92353193224136,
        "alt_km": 776.3159769887679,
        "timestamp": "2025-12-11T18:59:46.467894+00:00",
        "meta_object_name": "COSMOS 2251 DEB",
        "meta_object_id": "1993-036BP",
        "meta_epoch": "2025-12-10T08:30:14.657184",
        "meta_mean_motion": 14.13051479,
        "meta_eccentricity": 0.01535173,
        "meta_inclination": 74.0694,
        "meta_ra_of_asc_node": 197.893,
        "meta_arg_of_pericenter": 244.7874,
        "meta_mean_anomaly": 292.7166,
        "meta_ephemeris_type": 0,
        "meta_classification_type": "U",
        "meta_norad_cat_id": 33822,
        "meta_element_set_no": 999,
        "meta_rev_at_epoch": 86020,
        "meta_bstar": 0.0017246125,
        "meta_mean_motion_dot": 3.577e-05,
        "meta_mean_motion_ddot": 0,
        "tle_line1": "1 33822U 93036BP  25344.35433631  .00003577  00000+0  17246-2 0  9998",
        "tle_line2": "2 33822  74.0694 197.8930 0153517 244.7874 292.7166 14.13051479860209"
      },
      "geometry": {
        "type": "Point",
        "coordinates": [
          152.92353193224136,
          -67.05695918870141
        ]
      }
    },
    {
      "type": "Feature",
      "properties": {
        "norad_id": 33823,
        "name": "COSMOS 2251 DEB",
        "group": "cosmos-2251-debris",
        "lat": 25.081147148357644,
        "lon": -36.82233731683481,
        "alt_km": 976.0545783626503,
        "timestamp": "2025-12-11T18:59:46.467906+00:00",
        "meta_object_name": "COSMOS 2251 DEB",
        "meta_object_id": "1993-036BQ",
        "meta_epoch": "2025-12-11T05:03:22.059072",
        "meta_mean_motion": 13.98943578,
        "meta_eccentricity": 0.02093326,
        "meta_inclination": 73.8096,
        "meta_ra_of_asc_node": 152.0103,
        "meta_arg_of_pericenter": 277.4208,
        "meta_mean_anomaly": 194.2263,
        "meta_ephemeris_type": 0,
        "meta_classification_type": "U",
        "meta_norad_cat_id": 33823,
        "meta_element_set_no": 999,
        "meta_rev_at_epoch": 85588,
        "meta_bstar": 0.0010375347,
        "meta_mean_motion_dot": 1.78e-05,
        "meta_mean_motion_ddot": 0,
        "tle_line1": "1 33823U 93036BQ  25345.21067198  .00001780  00000+0  10375-2 0  9996",
        "tle_line2": "2 33823  73.8096 152.0103 0209332 277.4208 194.2263 13.98943578855883"
      },
      "geometry": {
        "type": "Point",
        "coordinates": [
          -36.82233731683481,
          25.081147148357644
        ]
      }
    },
    {
      "type": "Feature",
      "properties": {
        "norad_id": 33825,
        "name": "COSMOS 2251 DEB",
        "group": "cosmos-2251-debris",
        "lat": -67.75385351847623,
        "lon": -14.967143570344751,
        "alt_km": 649.1652689622324,
        "timestamp": "2025-12-11T18:59:46.467917+00:00",
        "meta_object_name": "COSMOS 2251 DEB",
        "meta_object_id": "1993-036BS",
        "meta_epoch": "2025-12-11T06:34:16.772736",
        "meta_mean_motion": 14.6974429,
        "meta_eccentricity": 0.00845047,
        "meta_inclination": 73.9853,
        "meta_ra_of_asc_node": 30.6412,
        "meta_arg_of_pericenter": 358.0349,
        "meta_mean_anomaly": 70.4594,
        "meta_ephemeris_type": 0,
        "meta_classification_type": "U",
        "meta_norad_cat_id": 33825,
        "meta_element_set_no": 999,
        "meta_rev_at_epoch": 88858,
        "meta_bstar": 0.0012777138,
        "meta_mean_motion_dot": 8.024e-05,
        "meta_mean_motion_ddot": 0,
        "tle_line1": "1 33825U 93036BS  25345.27380524  .00008024  00000+0  12777-2 0  9991",
        "tle_line2": "2 33825  73.9853  30.6412 0084504 358.0349  70.4594 14.69744290888589"
      },
      "geometry": {
        "type": "Point",
        "coordinates": [
          -14.967143570344751,
          -67.75385351847623
        ]
      }
    },
    {
      "type": "Feature",
      "properties": {
        "norad_id": 33826,
        "name": "COSMOS 2251 DEB",
        "group": "cosmos-2251-debris",
        "lat": -55.16616402210363,
        "lon": -104.1012886740768,
        "alt_km": 773.293599370174,
        "timestamp": "2025-12-11T18:59:46.467928+00:00",
        "meta_object_name": "COSMOS 2251 DEB",
        "meta_object_id": "1993-036BT",
        "meta_epoch": "2025-12-11T06:36:31.776192",
        "meta_mean_motion": 14.51699804,
        "meta_eccentricity": 0.00833212,
        "meta_inclination": 74.0649,
        "meta_ra_of_asc_node": 52.6285,
        "meta_arg_of_pericenter": 97.4812,
        "meta_mean_anomaly": 324.151,
        "meta_ephemeris_type": 0,
        "meta_classification_type": "U",
        "meta_norad_cat_id": 33826,
        "meta_element_set_no": 999,
        "meta_rev_at_epoch": 87748,
        "meta_bstar": 0.0018564676,
        "meta_mean_motion_dot": 7.777e-05,
        "meta_mean_motion_ddot": 0,
        "tle_line1": "1 33826U 93036BT  25345.27536778  .00007777  00000+0  18565-2 0  9991",
        "tle_line2": "2 33826  74.0649  52.6285 0083321  97.4812 324.1510 14.51699804877487"
      },
      "geometry": {
        "type": "Point",
        "coordinates": [
          -104.1012886740768,
          -55.16616402210363
        ]
      }
    },
    {
      "type": "Feature",
      "properties": {
        "norad_id": 33828,
        "name": "COSMOS 2251 DEB",
        "group": "cosmos-2251-debris",
        "lat": 19.511550574317944,
        "lon": 54.036414883861895,
        "alt_km": 762.7433014174112,
        "timestamp": "2025-12-11T18:59:46.467940+00:00",
        "meta_object_name": "COSMOS 2251 DEB",
        "meta_object_id": "1993-036BV",
        "meta_epoch": "2025-12-11T03:52:41.413152",
        "meta_mean_motion": 14.44324585,
        "meta_eccentricity": 0.00294505,
        "meta_inclination": 74.0467,
        "meta_ra_of_asc_node": 241.0248,
        "meta_arg_of_pericenter": 314.1939,
        "meta_mean_anomaly": 171.5402,
        "meta_ephemeris_type": 0,
        "meta_classification_type": "U",
        "meta_norad_cat_id": 33828,
        "meta_element_set_no": 999,
        "meta_rev_at_epoch": 88290,
        "meta_bstar": 0.00071508352,
        "meta_mean_motion_dot": 2.447e-05,
        "meta_mean_motion_ddot": 0,
        "tle_line1": "1 33828U 93036BV  25345.16159043  .00002447  00000+0  71508-3 0  9993",
        "tle_line2": "2 33828  74.0467 241.0248 0029450 314.1939 171.5402 14.44324585882902"
      },
      "geometry": {
        "type": "Point",
        "coordinates": [
          54.036414883861895,
          19.511550574317944
        ]
      }
    },
    {
      "type": "Feature",
      "properties": {
        "norad_id": 33830,
        "name": "COSMOS 2251 DEB",
        "group": "cosmos-2251-debris",
        "lat": -69.42453851496495,
        "lon": -177.4823267091133,
        "alt_km": 635.5137097759416,
        "timestamp": "2025-12-11T18:59:46.467951+00:00",
        "meta_object_name": "COSMOS 2251 DEB",
        "meta_object_id": "1993-036BX",
        "meta_epoch": "2025-12-11T03:36:31.396032",
        "meta_mean_motion": 14.76864504,
        "meta_eccentricity": 0.0042358,
        "meta_inclination": 74.0322,
        "meta_ra_of_asc_node": 233.4821,
        "meta_arg_of_pericenter": 353.9112,
        "meta_mean_anomaly": 122.3243,
        "meta_ephemeris_type": 0,
        "meta_classification_type": "U",
        "meta_norad_cat_id": 33830,
        "meta_element_set_no": 999,
        "meta_rev_at_epoch": 89448,
        "meta_bstar": 0.0013580545,
        "meta_mean_motion_dot": 9.664e-05,
        "meta_mean_motion_ddot": 0,
        "tle_line1": "1 33830U 93036BX  25345.15036338  .00009664  00000+0  13581-2 0  9990",
        "tle_line2": "2 33830  74.0322 233.4821 0042358 353.9112 122.3243 14.76864504894481"
      },
      "geometry": {
        "type": "Point",
        "coordinates": [
          -177.4823267091133,
          -69.42453851496495
        ]
      }
    },
    {
      "type": "Feature",
      "properties": {
        "norad_id": 33832,
        "name": "COSMOS 2251 DEB",
        "group": "cosmos-2251-debris",
        "lat": 28.07313803967064,
        "lon": -139.44408650442134,
        "alt_km": 704.2894973816492,
        "timestamp": "2025-12-11T18:59:46.467963+00:00",
        "meta_object_name": "COSMOS 2251 DEB",
        "meta_object_id": "1993-036BZ",
        "meta_epoch": "2025-12-11T01:21:31.601664",
        "meta_mean_motion": 14.60609783,
        "meta_eccentricity": 0.00249834,
        "meta_inclination": 74.0538,
        "meta_ra_of_asc_node": 213.186,
        "meta_arg_of_pericenter": 244.5959,
        "meta_mean_anomaly": 242.0023,
        "meta_ephemeris_type": 0,
        "meta_classification_type": "U",
        "meta_norad_cat_id": 33832,
        "meta_element_set_no": 999,
        "meta_rev_at_epoch": 88400,
        "meta_bstar": 0.0019649565,
        "meta_mean_motion_dot": 9.582e-05,
        "meta_mean_motion_ddot": 0,
        "tle_line1": "1 33832U 93036BZ  25345.05661576  .00009582  00000+0  19650-2 0  9991",
        "tle_line2": "2 33832  74.0538 213.1860 0024983 244.5959 242.0023 14.60609783884000"
      },
      "geometry": {
        "type": "Point",
        "coordinates": [
          -139.44408650442134,
          28.07313803967064
        ]
      }
    }
  ]
}